STARLINK-1470           
1 45772U 20038AU  26068.60892913  .00054678  00000+0  19687-2 0  9990
2 45772  53.0480 174.6971 0002444  12.8687 347.2373 15.28074860317065
STARLINK-30525          
1 58012U 23153X   26068.00175496  .00000980  00000+0  46237-4 0  9996
2 58012  43.0059  70.7104 0001869 287.6945  72.3702 15.26741269134791
